[
    {
        "Altitude(m)": 582586.1857461751,
        "Argument of Periapsis(deg)": 0.0,
        "Eccentricity": 0.0,
        "Inclination(deg)": 97.0,
        "Latitude(deg)": -49.41273648252978,
        "Longitude(deg)": 58.22556484003412,
        "Mean Anomaly(deg)": -49.655199999999994,
        "RAAN(deg)": 150.0,
        "Satellite Name": "Starlink Shell 3 1924",
        "Satellite Number": 1924,
        "Semi-Major Axis(m)": 6938478.169268562,
        "Time(s)": 0
    },
    {
        "Altitude(m)": 582340.5009282462,
        "Argument of Periapsis(deg)": -0.0003965466804030246,
        "Eccentricity": 0.0,
        "Inclination(deg)": 97.0,
        "Latitude(deg)": -48.800072109172596,
        "Longitude(deg)": 58.00754637738815,
        "Mean Anomaly(deg)": -49.02972380229489,
        "RAAN(deg)": 150.00010433427403,
        "Satellite Name": "Starlink Shell 3 1924",
        "Satellite Number": 1924,
        "Semi-Major Axis(m)": 6938478.169268562,
        "Time(s)": 10
    },
    {
        "Altitude(m)": 582093.5145335309,
        "Argument of Periapsis(deg)": -0.0007930933608060492,
        "Eccentricity": 0.0,
        "Inclination(deg)": 97.0,
        "Latitude(deg)": -48.187052890795066,
        "Longitude(deg)": 57.79375927501461,
        "Mean Anomaly(deg)": -48.40424760458988,
        "RAAN(deg)": 150.00020866854803,
        "Satellite Name": "Starlink Shell 3 1924",
        "Satellite Number": 1924,
        "Semi-Major Axis(m)": 6938478.169268562,
        "Time(s)": 20
    },
    {
        "Altitude(m)": 581845.324460427,
        "Argument of Periapsis(deg)": -0.001189640041209074,
        "Eccentricity": 0.0,
        "Inclination(deg)": 97.0,
        "Latitude(deg)": -47.573690057176,
        "Longitude(deg)": 57.58401643385945,
        "Mean Anomaly(deg)": -47.778771406884886,
        "RAAN(deg)": 150.00031300282205,
        "Satellite Name": "Starlink Shell 3 1924",
        "Satellite Number": 1924,
        "Semi-Major Axis(m)": 6938478.169268562,
        "Time(s)": 30
    },
    {
        "Altitude(m)": 581596.0289841098,
        "Argument of Periapsis(deg)": -0.0015861867216120985,
        "Eccentricity": 0.0,
        "Inclination(deg)": 97.0,
        "Latitude(deg)": -46.95999423138671,
        "Longitude(deg)": 57.378141540345226,
        "Mean Anomaly(deg)": -47.15329520917977,
        "RAAN(deg)": 150.00041733709605,
        "Satellite Name": "Starlink Shell 3 1924",
        "Satellite Number": 1924,
        "Semi-Major Axis(m)": 6938478.169268562,
        "Time(s)": 40
    },
    {
        "Altitude(m)": 581345.7267127094,
        "Argument of Periapsis(deg)": -0.0019827334020151234,
        "Eccentricity": 0.0,
        "Inclination(deg)": 97.0,
        "Latitude(deg)": -46.34597547482991,
        "Longitude(deg)": 57.17596735578447,
        "Mean Anomaly(deg)": -46.52781901147476,
        "RAAN(deg)": 150.00052167137008,
        "Satellite Name": "Starlink Shell 3 1924",
        "Satellite Number": 1924,
        "Semi-Major Axis(m)": 6938478.169268562,
        "Time(s)": 50
    },
    {
        "Altitude(m)": 581094.5165433582,
        "Argument of Periapsis(deg)": -0.002379280082418148,
        "Eccentricity": 0.0,
        "Inclination(deg)": 97.0,
        "Latitude(deg)": -45.73164332862163,
        "Longitude(deg)": 56.977335574593866,
        "Mean Anomaly(deg)": -45.90234281376973,
        "RAAN(deg)": 150.00062600564405,
        "Satellite Name": "Starlink Shell 3 1924",
        "Satellite Number": 1924,
        "Semi-Major Axis(m)": 6938478.169268562,
        "Time(s)": 60
    },
    {
        "Altitude(m)": 580842.4976179746,
        "Argument of Periapsis(deg)": -0.002775826762821173,
        "Eccentricity": 0.0,
        "Inclination(deg)": 97.0,
        "Latitude(deg)": -45.11700685165623,
        "Longitude(deg)": 56.782096733350464,
        "Mean Anomaly(deg)": -45.27686661606463,
        "RAAN(deg)": 150.00073033991808,
        "Satellite Name": "Starlink Shell 3 1924",
        "Satellite Number": 1924,
        "Semi-Major Axis(m)": 6938478.169268562,
        "Time(s)": 70
    },
    {
        "Altitude(m)": 580589.7692789744,
        "Argument of Periapsis(deg)": -0.003172373443224197,
        "Eccentricity": 0.0,
        "Inclination(deg)": 97.0,
        "Latitude(deg)": -44.502074655658596,
        "Longitude(deg)": 56.59010865324769,
        "Mean Anomaly(deg)": -44.651390418359625,
        "RAAN(deg)": 150.00083467419208,
        "Satellite Name": "Starlink Shell 3 1924",
        "Satellite Number": 1924,
        "Semi-Major Axis(m)": 6938478.169268562,
        "Time(s)": 80
    },
    {
        "Altitude(m)": 580336.4310247607,
        "Argument of Periapsis(deg)": -0.0035689201236272223,
        "Eccentricity": 0.0,
        "Inclination(deg)": 97.0,
        "Latitude(deg)": -43.88685493748956,
        "Longitude(deg)": 56.40123643757942,
        "Mean Anomaly(deg)": -44.02591422065452,
        "RAAN(deg)": 150.00093900846608,
        "Satellite Name": "Starlink Shell 3 1924",
        "Satellite Number": 1924,
        "Semi-Major Axis(m)": 6938478.169268562,
        "Time(s)": 90
    },
    {
        "Altitude(m)": 580082.5824651448,
        "Argument of Periapsis(deg)": -0.003965466804030247,
        "Eccentricity": 0.0,
        "Inclination(deg)": 97.0,
        "Latitude(deg)": -43.27135550895288,
        "Longitude(deg)": 56.21535250767823,
        "Mean Anomaly(deg)": -43.40043802294951,
        "RAAN(deg)": 150.0010433427401,
        "Satellite Name": "Starlink Shell 3 1924",
        "Satellite Number": 1924,
        "Semi-Major Axis(m)": 6938478.169268562,
        "Time(s)": 100
    },
    {
        "Altitude(m)": 579828.3232766417,
        "Argument of Periapsis(deg)": -0.004362013484433271,
        "Eccentricity": 0.0,
        "Inclination(deg)": 97.0,
        "Latitude(deg)": -42.655583824322,
        "Longitude(deg)": 56.03233516109372,
        "Mean Anomaly(deg)": -42.77496182524452,
        "RAAN(deg)": 150.0011476770141,
        "Satellite Name": "Starlink Shell 3 1924",
        "Satellite Number": 1924,
        "Semi-Major Axis(m)": 6938478.169268562,
        "Time(s)": 110
    },
    {
        "Altitude(m)": 579573.7531576925,
        "Argument of Periapsis(deg)": -0.004758560164836296,
        "Eccentricity": 0.0,
        "Inclination(deg)": 97.0,
        "Latitude(deg)": -42.03954700578265,
        "Longitude(deg)": 55.85206867473855,
        "Mean Anomaly(deg)": -42.149485627539505,
        "RAAN(deg)": 150.0012520112881,
        "Satellite Name": "Starlink Shell 3 1924",
        "Satellite Number": 1924,
        "Semi-Major Axis(m)": 6938478.169268562,
        "Time(s)": 120
    },
    {
        "Altitude(m)": 579318.9717838264,
        "Argument of Periapsis(deg)": -0.005155106845239321,
        "Eccentricity": 0.0,
        "Inclination(deg)": 97.0,
        "Latitude(deg)": -41.42325186697009,
        "Longitude(deg)": 55.6744434374027,
        "Mean Anomaly(deg)": -41.5240094298344,
        "RAAN(deg)": 150.00135634556213,
        "Satellite Name": "Starlink Shell 3 1924",
        "Satellite Number": 1924,
        "Semi-Major Axis(m)": 6938478.169268562,
        "Time(s)": 130
    },
    {
        "Altitude(m)": 579064.0787627711,
        "Argument of Periapsis(deg)": -0.005551653525642346,
        "Eccentricity": 0.0,
        "Inclination(deg)": 97.0,
        "Latitude(deg)": -40.80670493476468,
        "Longitude(deg)": 55.49935459629778,
        "Mean Anomaly(deg)": -40.89853323212939,
        "RAAN(deg)": 150.00146067983613,
        "Satellite Name": "Starlink Shell 3 1924",
        "Satellite Number": 1924,
        "Semi-Major Axis(m)": 6938478.169268562,
        "Time(s)": 140
    },
    {
        "Altitude(m)": 578809.1735895827,
        "Argument of Periapsis(deg)": -0.005948200206045371,
        "Eccentricity": 0.0,
        "Inclination(deg)": 97.0,
        "Latitude(deg)": -40.1899124694861,
        "Longitude(deg)": 55.326702241137056,
        "Mean Anomaly(deg)": -40.27305703442429,
        "RAAN(deg)": 150.00156501411016,
        "Satellite Name": "Starlink Shell 3 1924",
        "Satellite Number": 1924,
        "Semi-Major Axis(m)": 6938478.169268562,
        "Time(s)": 150
    },
    {
        "Altitude(m)": 578554.3556017209,
        "Argument of Periapsis(deg)": -0.006344746886448394,
        "Eccentricity": 0.0,
        "Inclination(deg)": 97.0,
        "Latitude(deg)": -39.57288048362224,
        "Longitude(deg)": 55.15639161085307,
        "Mean Anomaly(deg)": -39.647580836719285,
        "RAAN(deg)": 150.00166934838416,
        "Satellite Name": "Starlink Shell 3 1924",
        "Satellite Number": 1924,
        "Semi-Major Axis(m)": 6938478.169268562,
        "Time(s)": 160
    },
    {
        "Altitude(m)": 578299.7239342133,
        "Argument of Periapsis(deg)": -0.00674129356685142,
        "Eccentricity": 0.0,
        "Inclination(deg)": 97.0,
        "Latitude(deg)": -38.95561475921109,
        "Longitude(deg)": 54.98833180823838,
        "Mean Anomaly(deg)": -39.02210463901427,
        "RAAN(deg)": 150.00177368265818,
        "Satellite Name": "Starlink Shell 3 1924",
        "Satellite Number": 1924,
        "Semi-Major Axis(m)": 6938478.169268562,
        "Time(s)": 170
    },
    {
        "Altitude(m)": 578045.3774748163,
        "Argument of Periapsis(deg)": -0.007137840247254445,
        "Eccentricity": 0.0,
        "Inclination(deg)": 97.0,
        "Latitude(deg)": -38.33812086398275,
        "Longitude(deg)": 54.822436046579305,
        "Mean Anomaly(deg)": -38.39662844130914,
        "RAAN(deg)": 150.00187801693215,
        "Satellite Name": "Starlink Shell 3 1924",
        "Satellite Number": 1924,
        "Semi-Major Axis(m)": 6938478.169268562,
        "Time(s)": 180
    }
]